42959,IRIDIUM 119,2017,100.4,860.0,+,86.4,Active,1,LEO,USA,USA,Commercial/Government,Communications,Falcon,1 42959U 17061E   24239.88396482  .00000415  00000+0  14128-3 0  9990,2 42959  86.3961 300.7707 0002192  86.2042 273.9405 14.34220080360311,14.3422008,0.0002192,LEO
42960,IRIDIUM 107,2017,100.4,860.0,+,86.4,Active,1,LEO,USA,USA,Commercial/Government,Communications,Falcon,1 42960U 17061F   24239.90299359  .00000362  00000+0  12228-3 0  9990,2 42960  86.3960 300.7801 0002090  88.8703 271.2732 14.34220327360325,14.34220327,0.000209,LEO
42961,IRIDIUM 132,2017,100.4,860.0,+,86.4,Active,1,LEO,USA,USA,Commercial/Government,Communications,Falcon,1 42961U 17061G   24239.90933612  .00000112  00000+0  33092-4 0  9994,2 42961  86.3964 300.7617 0001876  92.0517 268.0894 14.34217525360325,14.34217525,0.0001876,LEO
42962,IRIDIUM 136,2017,100.4,860.0,+,86.4,Active,1,LEO,USA,USA,Commercial/Government,Communications,Falcon,1 42962U 17061H   24239.59221035  .00000167  00000+0  52552-4 0  9991,2 42962  86.3963 300.8978 0002341  88.4883 271.6581 14.34219363360290,14.34219363,0.0002341,LEO
42963,IRIDIUM 139,2017,100.4,860.0,+,86.41,Active,1,LEO,USA,USA,Commercial/Government,Communications,Falcon,1 42963U 17061J   24239.87762328  .00000020  00000+0  12699-6 0  9996,2 42963  86.3956 300.8296 0002034  86.5498 273.5931 14.34218351360348,14.34218351,0.0002034,LEO
42964,IRIDIUM 125,2017,100.4,860.0,+,86.4,Active,1,LEO,USA,USA,Commercial/Government,Communications,Falcon,1 42964U 17061K   24239.93470801  .00000122  00000+0  36353-4 0  9990,2 42964  86.3965 300.8548 0002298  78.6339 281.5115 14.34217187360368,14.34217187,0.0002298,LEO
43070,IRIDIUM 135,2017,100.4,860.0,+,86.39,Active,1,LEO,USA,USA,Commercial/Government,Communications,Falcon,1 43070U 17083A   24239.90883252 -.00000094  00000+0 -40516-4 0  9994,2 43070  86.3936 237.4958 0002192  97.6409 262.5036 14.34217459349659,14.34217459,0.0002192,LEO
43071,IRIDIUM 138,2017,100.4,860.0,+,86.39,Active,1,LEO,USA,USA,Commercial/Government,Communications,Falcon,1 43071U 17083B   24239.72489880 -.00000054  00000+0 -26456-4 0  9997,2 43071  86.3925 237.2812 0002473  82.6174 277.5303 14.34217429349616,14.34217429,0.0002473,LEO
